CCSDS_OMM_VERS = 2.0
CREATION_DATE  = 
ORIGINATOR     = 

OBJECT_NAME    = PROGRESS-MS 32
OBJECT_ID      = 2025-204A
CENTER_NAME    = EARTH
REF_FRAME      = TEME
TIME_SYSTEM    = UTC
MEAN_ELEMENT_THEORY = SGP/SGP4

EPOCH          = 2025-11-24T03:47:00.254976
MEAN_MOTION    = 15.49035693
ECCENTRICITY   = .0003916
INCLINATION    = 51.6317
RA_OF_ASC_NODE = 234.4566
ARG_OF_PERICENTER = 162.1487
MEAN_ANOMALY   = 197.9639

EPHEMERIS_TYPE = 0
CLASSIFICATION_TYPE = U
NORAD_CAT_ID   = 65586
ELEMENT_SET_NO = 999
REV_AT_EPOCH   = 27
BSTAR          = .26124382E-3
MEAN_MOTION_DOT = .13988E-3
MEAN_MOTION_DDOT = 0

CCSDS_OMM_VERS = 2.0
CREATION_DATE  = 
ORIGINATOR     = 

OBJECT_NAME    = CYGNUS NG-23
OBJECT_ID      = 2025-208A
CENTER_NAME    = EARTH
REF_FRAME      = TEME
TIME_SYSTEM    = UTC
MEAN_ELEMENT_THEORY = SGP/SGP4

EPOCH          = 2025-11-24T03:47:00.254976
MEAN_MOTION    = 15.49035693
ECCENTRICITY   = .0003916
INCLINATION    = 51.6317
RA_OF_ASC_NODE = 234.4566
ARG_OF_PERICENTER = 162.1487
MEAN_ANOMALY   = 197.9639

EPHEMERIS_TYPE = 0
CLASSIFICATION_TYPE = U
NORAD_CAT_ID   = 65616
ELEMENT_SET_NO = 999
REV_AT_EPOCH   = 22
BSTAR          = .26124382E-3
MEAN_MOTION_DOT = .13988E-3
MEAN_MOTION_DDOT = 0

CCSDS_OMM_VERS = 2.0
CREATION_DATE  = 
ORIGINATOR     = 

OBJECT_NAME    = DRAGONFLY
OBJECT_ID      = 1998-067XH
CENTER_NAME    = EARTH
REF_FRAME      = TEME
TIME_SYSTEM    = UTC
MEAN_ELEMENT_THEORY = SGP/SGP4

EPOCH          = 2025-11-24T03:13:35.098464
MEAN_MOTION    = 15.65678178
ECCENTRICITY   = .00060509
INCLINATION    = 51.6275
RA_OF_ASC_NODE = 230.5521
ARG_OF_PERICENTER = 172.8039
MEAN_ANOMALY   = 187.3044

EPHEMERIS_TYPE = 0
CLASSIFICATION_TYPE = U
NORAD_CAT_ID   = 65729
ELEMENT_SET_NO = 999
REV_AT_EPOCH   = 1024
BSTAR          = .1264427E-2
MEAN_MOTION_DOT = .131813E-2
MEAN_MOTION_DDOT = 0

CCSDS_OMM_VERS = 2.0
CREATION_DATE  = 
ORIGINATOR     = 

OBJECT_NAME    = 1998-067XJ
OBJECT_ID      = 1998-067XJ
CENTER_NAME    = EARTH
REF_FRAME      = TEME
TIME_SYSTEM    = UTC
MEAN_ELEMENT_THEORY = SGP/SGP4

EPOCH          = 2025-11-24T02:05:36.927744
MEAN_MOTION    = 15.89933039
ECCENTRICITY   = .00124698
INCLINATION    = 51.6191
RA_OF_ASC_NODE = 227.1932
ARG_OF_PERICENTER = 176.8753
MEAN_ANOMALY   = 183.2333

EPHEMERIS_TYPE = 0
CLASSIFICATION_TYPE = U
NORAD_CAT_ID   = 65730
ELEMENT_SET_NO = 999
REV_AT_EPOCH   = 1028
BSTAR          = .26823627E-2
MEAN_MOTION_DOT = .821396E-2
MEAN_MOTION_DDOT = .2830898E-3

CCSDS_OMM_VERS = 2.0
CREATION_DATE  = 
ORIGINATOR     = 

OBJECT_NAME    = 1998-067XK
OBJECT_ID      = 1998-067XK
CENTER_NAME    = EARTH
REF_FRAME      = TEME
TIME_SYSTEM    = UTC
MEAN_ELEMENT_THEORY = SGP/SGP4

EPOCH          = 2025-11-24T03:16:07.849344
MEAN_MOTION    = 15.61839277
ECCENTRICITY   = .00060103
INCLINATION    = 51.6301
RA_OF_ASC_NODE = 231.3204
ARG_OF_PERICENTER = 147.5835
MEAN_ANOMALY   = 212.5529

EPHEMERIS_TYPE = 0
CLASSIFICATION_TYPE = U
NORAD_CAT_ID   = 65731
ELEMENT_SET_NO = 999
REV_AT_EPOCH   = 1023
BSTAR          = .96580707E-3
MEAN_MOTION_DOT = .85895E-3
MEAN_MOTION_DDOT = 0

CCSDS_OMM_VERS = 2.0
CREATION_DATE  = 
ORIGINATOR     = 

OBJECT_NAME    = RSP-03
OBJECT_ID      = 1998-067XL
CENTER_NAME    = EARTH
REF_FRAME      = TEME
TIME_SYSTEM    = UTC
MEAN_ELEMENT_THEORY = SGP/SGP4

EPOCH          = 2025-11-23T23:26:19.865184
MEAN_MOTION    = 15.63631631
ECCENTRICITY   = .00069398
INCLINATION    = 51.6285
RA_OF_ASC_NODE = 231.7507
ARG_OF_PERICENTER = 150.3605
MEAN_ANOMALY   = 209.7784

EPHEMERIS_TYPE = 0
CLASSIFICATION_TYPE = U
NORAD_CAT_ID   = 65732
ELEMENT_SET_NO = 999
REV_AT_EPOCH   = 1022
BSTAR          = .11333715E-2
MEAN_MOTION_DOT = .108568E-2
MEAN_MOTION_DDOT = 0

CCSDS_OMM_VERS = 2.0
CREATION_DATE  = 
ORIGINATOR     = 

OBJECT_NAME    = GHS-01
OBJECT_ID      = 1998-067XM
CENTER_NAME    = EARTH
REF_FRAME      = TEME
TIME_SYSTEM    = UTC
MEAN_ELEMENT_THEORY = SGP/SGP4

EPOCH          = 2025-11-24T10:18:47.176416
MEAN_MOTION    = 15.67279698
ECCENTRICITY   = .0006598
INCLINATION    = 51.6289
RA_OF_ASC_NODE = 228.7787
ARG_OF_PERICENTER = 172.5677
MEAN_ANOMALY   = 187.5418

EPHEMERIS_TYPE = 0
CLASSIFICATION_TYPE = U
NORAD_CAT_ID   = 65733
ELEMENT_SET_NO = 999
REV_AT_EPOCH   = 1030
BSTAR          = .13558E-2
MEAN_MOTION_DOT = .15121E-2
MEAN_MOTION_DDOT = 0

CCSDS_OMM_VERS = 2.0
CREATION_DATE  = 
ORIGINATOR     = 

OBJECT_NAME    = YOTSUBA-KULOVER
OBJECT_ID      = 1998-067XN
CENTER_NAME    = EARTH
REF_FRAME      = TEME
TIME_SYSTEM    = UTC
MEAN_ELEMENT_THEORY = SGP/SGP4

EPOCH          = 2025-11-24T02:38:58.350048
MEAN_MOTION    = 15.56556490
ECCENTRICITY   = .00024182
INCLINATION    = 51.6300
RA_OF_ASC_NODE = 233.3945
ARG_OF_PERICENTER = 121.4607
MEAN_ANOMALY   = 238.6621

EPHEMERIS_TYPE = 0
CLASSIFICATION_TYPE = U
NORAD_CAT_ID   = 65941
ELEMENT_SET_NO = 999
REV_AT_EPOCH   = 695
BSTAR          = .89119483E-3
MEAN_MOTION_DOT = .64547E-3
MEAN_MOTION_DDOT = 0

CCSDS_OMM_VERS = 2.0
CREATION_DATE  = 
ORIGINATOR     = 

OBJECT_NAME    = BOTAN
OBJECT_ID      = 1998-067XP
CENTER_NAME    = EARTH
REF_FRAME      = TEME
TIME_SYSTEM    = UTC
MEAN_ELEMENT_THEORY = SGP/SGP4

EPOCH          = 2025-11-24T03:32:58.039872
MEAN_MOTION    = 15.58627558
ECCENTRICITY   = .00046795
INCLINATION    = 51.6299
RA_OF_ASC_NODE = 232.8955
ARG_OF_PERICENTER = 127.4021
MEAN_ANOMALY   = 232.7398

EPHEMERIS_TYPE = 0
CLASSIFICATION_TYPE = U
NORAD_CAT_ID   = 65942
ELEMENT_SET_NO = 999
REV_AT_EPOCH   = 696
BSTAR          = .1189409E-2
MEAN_MOTION_DOT = .93675E-3
MEAN_MOTION_DDOT = 0

CCSDS_OMM_VERS = 2.0
CREATION_DATE  = 
ORIGINATOR     = 

OBJECT_NAME    = E-KAGAKU-1
OBJECT_ID      = 1998-067XQ
CENTER_NAME    = EARTH
REF_FRAME      = TEME
TIME_SYSTEM    = UTC
MEAN_ELEMENT_THEORY = SGP/SGP4

EPOCH          = 2025-11-24T02:38:31.699104
MEAN_MOTION    = 15.56534429
ECCENTRICITY   = .00040044
INCLINATION    = 51.6308
RA_OF_ASC_NODE = 233.3942
ARG_OF_PERICENTER = 108.5710
MEAN_ANOMALY   = 251.5717

EPHEMERIS_TYPE = 0
CLASSIFICATION_TYPE = U
NORAD_CAT_ID   = 65943
ELEMENT_SET_NO = 999
REV_AT_EPOCH   = 695
BSTAR          = .88691505E-3
MEAN_MOTION_DOT = .64191E-3
MEAN_MOTION_DDOT = 0

CCSDS_OMM_VERS = 2.0
CREATION_DATE  = 
ORIGINATOR     = 

OBJECT_NAME    = HRC MONOBLOCK CAMERA
OBJECT_ID      = 1998-067XR
CENTER_NAME    = EARTH
REF_FRAME      = TEME
TIME_SYSTEM    = UTC
MEAN_ELEMENT_THEORY = SGP/SGP4

EPOCH          = 2025-11-24T09:06:19.219104
MEAN_MOTION    = 15.52530108
ECCENTRICITY   = .0004708
INCLINATION    = 51.6305
RA_OF_ASC_NODE = 232.9365
ARG_OF_PERICENTER = 110.0504
MEAN_ANOMALY   = 250.0993

EPHEMERIS_TYPE = 0
CLASSIFICATION_TYPE = U
NORAD_CAT_ID   = 66052
ELEMENT_SET_NO = 999
REV_AT_EPOCH   = 598
BSTAR          = .57106E-3
MEAN_MOTION_DOT = .35373E-3
MEAN_MOTION_DDOT = 0

CCSDS_OMM_VERS = 2.0
CREATION_DATE  = 
ORIGINATOR     = 

OBJECT_NAME    = HTV-X1
OBJECT_ID      = 2025-241A
CENTER_NAME    = EARTH
REF_FRAME      = TEME
TIME_SYSTEM    = UTC
MEAN_ELEMENT_THEORY = SGP/SGP4

EPOCH          = 2025-11-24T03:47:00.254976
MEAN_MOTION    = 15.49035693
ECCENTRICITY   = .0003916
INCLINATION    = 51.6317
RA_OF_ASC_NODE = 234.4566
ARG_OF_PERICENTER = 162.1487
MEAN_ANOMALY   = 197.9639

EPHEMERIS_TYPE = 0
CLASSIFICATION_TYPE = U
NORAD_CAT_ID   = 66174
ELEMENT_SET_NO = 999
REV_AT_EPOCH   = 145
BSTAR          = .26124382E-3
MEAN_MOTION_DOT = .13988E-3
MEAN_MOTION_DDOT = 0

