PROGRESS-MS 32          
1 65586U 25204A   25328.15764184  .00013988  00000+0  26124-3 0  9995
2 65586  51.6317 234.4566 0003916 162.1487 197.9639 15.49035693   271
CYGNUS NG-23            
1 65616U 25208A   25328.15764184  .00013988  00000+0  26124-3 0  9993
2 65616  51.6317 234.4566 0003916 162.1487 197.9639 15.49035693   220
DRAGONFLY               
1 65729U 98067XH  25328.13443401  .00131813  00000+0  12644-2 0  9994
2 65729  51.6275 230.5521 0006050 172.8039 187.3044 15.65678178 10244
1998-067XJ              
1 65730U 98067XJ  25328.08723296  .00821396  28309-3  26824-2 0  9996
2 65730  51.6191 227.1932 0012469 176.8753 183.2333 15.89933039 10285
1998-067XK              
1 65731U 98067XK  25328.13620196  .00085895  00000+0  96581-3 0  9996
2 65731  51.6301 231.3204 0006010 147.5835 212.5529 15.61839277 10236
RSP-03                  
1 65732U 98067XL  25327.97661881  .00108568  00000+0  11334-2 0  9999
2 65732  51.6285 231.7507 0006939 150.3605 209.7784 15.63631631 10221
GHS-01                  
1 65733U 98067XM  25328.42971269  .00151210  00000+0  13558-2 0  9997
2 65733  51.6289 228.7787 0006598 172.5677 187.5418 15.67279698 10309
YOTSUBA-KULOVER         
1 65941U 98067XN  25328.11039757  .00064547  00000+0  89119-3 0  9994
2 65941  51.6300 233.3945 0002418 121.4607 238.6621 15.56556490  6951
BOTAN                   
1 65942U 98067XP  25328.14789398  .00093675  00000+0  11894-2 0  9999
2 65942  51.6299 232.8955 0004679 127.4021 232.7398 15.58627558  6964
E-KAGAKU-1              
1 65943U 98067XQ  25328.11008911  .00064191  00000+0  88692-3 0  9994
2 65943  51.6308 233.3942 0004004 108.5710 251.5717 15.56534429  6950
HRC MONOBLOCK CAMERA    
1 66052U 98067XR  25328.37938911  .00035373  00000+0  57106-3 0  9992
2 66052  51.6305 232.9365 0004708 110.0504 250.0993 15.52530108  5981
HTV-X1                  
1 66174U 25241A   25328.15764184  .00013988  00000+0  26124-3 0  9990
2 66174  51.6317 234.4566 0003916 162.1487 197.9639 15.49035693  1456
